{
    "links": {
        "self": "http://www.neowsapp.com/rest/v1/neo/3092304?api_key=iIulBulltgU6a56xZRHN4H3l9WmuAYTsLGpBGhQ2"
    },
    "id": "3092304",
    "neo_reference_id": "3092304",
    "name": "(2001 NY1)",
    "designation": "2001 NY1",
    "nasa_jpl_url": "http://ssd.jpl.nasa.gov/sbdb.cgi?sstr=3092304",
    "absolute_magnitude_h": 23.2,
    "estimated_diameter": {
        "kilometers": {
            "estimated_diameter_min": 0.0608912622,
            "estimated_diameter_max": 0.1361570015
        },
        "meters": {
            "estimated_diameter_min": 60.8912622106,
            "estimated_diameter_max": 136.1570015386
        },
        "miles": {
            "estimated_diameter_min": 0.0378360645,
            "estimated_diameter_max": 0.0846040122
        },
        "feet": {
            "estimated_diameter_min": 199.7744887109,
            "estimated_diameter_max": 446.7093369279
        }
    },
    "is_potentially_hazardous_asteroid": false,
    "close_approach_data": [
        {
            "close_approach_date": "1930-05-19",
            "close_approach_date_full": "1930-May-19 22:23",
            "epoch_date_close_approach": -1250300220000,
            "relative_velocity": {
                "kilometers_per_second": "16.8211427055",
                "kilometers_per_hour": "60556.1137398929",
                "miles_per_hour": "37627.2141179907"
            },
            "miss_distance": {
                "astronomical": "0.3550308249",
                "lunar": "138.1069908861",
                "kilometers": "53111855.189382963",
                "miles": "33002176.4834243694"
            },
            "orbiting_body": "Earth"
        },
        {
            "close_approach_date": "2001-07-02",
            "close_approach_date_full": "2001-Jul-02 06:57",
            "epoch_date_close_approach": 994057020000,
            "relative_velocity": {
                "kilometers_per_second": "9.6942064258",
                "kilometers_per_hour": "34899.1431328973",
                "miles_per_hour": "21684.9703538828"
            },
            "miss_distance": {
                "astronomical": "0.021867442",
                "lunar": "8.506434938",
                "kilometers": "3271322.74554854",
                "miles": "2032705.696268252"
            },
            "orbiting_body": "Earth"
        },
        {
            "close_approach_date": "2075-08-15",
            "close_approach_date_full": "2075-Aug-15 23:16",
            "epoch_date_close_approach": 3333136560000,
            "relative_velocity": {
                "kilometers_per_second": "16.8720893568",
                "kilometers_per_hour": "60739.5216845383",
                "miles_per_hour": "37741.1766822622"
            },
            "miss_distance": {
                "astronomical": "0.3309543967",
                "lunar": "128.7412603163",
                "kilometers": "49510072.813455029",
                "miles": "30764132.6944922402"
            },
            "orbiting_body": "Earth"
        },
        {
            "close_approach_date": "2149-08-27",
            "close_approach_date_full": "2149-Aug-27 22:46",
            "epoch_date_close_approach": 5669390760000,
            "relative_velocity": {
                "kilometers_per_second": "21.39106374",
                "kilometers_per_hour": "77007.829464031",
                "miles_per_hour": "47849.6704800252"
            },
            "miss_distance": {
                "astronomical": "0.4987311371",
                "lunar": "194.0064123319",
                "kilometers": "74609115.812837977",
                "miles": "46359954.8264270026"
            },
            "orbiting_body": "Earth"
        }
    ],
    "orbital_data": {
        "orbit_id": "9",
        "orbit_determination_date": "2017-04-06 09:16:19",
        "first_observation_date": "2001-07-10",
        "last_observation_date": "2001-09-19",
        "data_arc_in_days": 71,
        "observations_used": 23,
        "orbit_uncertainty": "6",
        "minimum_orbit_intersection": ".015321",
        "jupiter_tisserand_invariant": "3.398",
        "epoch_osculation": "2459000.5",
        "eccentricity": ".5408196521162424",
        "semi_major_axis": "2.246432234435351",
        "inclination": "11.76135036148867",
        "ascending_node_longitude": "282.6192055793491",
        "orbital_period": "1229.811104778799",
        "perihelion_distance": "1.031517534905311",
        "perihelion_argument": "357.6515056511394",
        "aphelion_distance": "3.461346933965391",
        "perihelion_time": "2459480.726884403003",
        "mean_anomaly": "219.4242012344031",
        "mean_motion": ".2927278820309169",
        "equinox": "J2000",
        "orbit_class": {
            "orbit_class_type": "AMO",
            "orbit_class_description": "Near-Earth asteroid orbits similar to that of 1221 Amor",
            "orbit_class_range": "1.017 AU < q (perihelion) < 1.3 AU"
        }
    },
    "is_sentry_object": false
}